EUTELSAT 7A             
1 28187U 04008A   25214.73324733  .00000109  00000+0  00000+0 0  9992
2 28187   5.0165  75.8298 0000993  59.3160 301.1667  1.00273577 78381
EUTELSAT 174A           
1 28924U 05052A   25215.43773067  .00000016  00000+0  00000+0 0  9994
2 28924   3.4090  80.5092 0006289  49.7186 153.6038  1.00270259 71793
EUTELSAT HOTBIRD 13B    
1 29270U 06032A   25214.26780123  .00000164  00000+0  00000+0 0  9993
2 29270   0.8334  85.8492 0004093  44.8013 309.9416  1.00274302 44102
EUTELSAT HOTBIRD 13C    
1 33459U 08065A   25215.40076167 -.00000092  00000+0  00000+0 0  9999
2 33459   2.1286  83.0184 0003533  58.3506 302.6161  1.00272323 61062
EUTELSAT 36B            
1 36101U 09065A   25215.48468131  .00000122  00000+0  00000+0 0  9994
2 36101   0.0529 344.6200 0005885 146.6452  46.0009  1.00270829 57620
EUTELSAT KA-SAT 9A      
1 37258U 10069A   25214.76260328  .00000071  00000+0  00000+0 0  9995
2 37258   0.0576 307.9066 0004063 185.0044 102.1952  1.00273068 53624
EUTELSAT 7 WEST A       
1 37816U 11051A   25215.40180167 -.00000050  00000+0  00000+0 0  9999
2 37816   0.0626  19.1520 0005063 125.6672 304.7366  1.00272778 50785
EUTELSAT 16A            
1 37836U 11057A   25214.26433455  .00000113  00000+0  00000+0 0  9990
2 37836   0.0645  12.7466 0005472 119.8936 289.5949  1.00272504  4129
